[
    {
        "Altitude(m)": 706389.1152246044,
        "Argument of Periapsis(deg)": 0.0022780242373254137,
        "Eccentricity": 0.0,
        "Inclination(deg)": 45.0,
        "Latitude(deg)": 41.02763800438928,
        "Longitude(deg)": -165.194931420035,
        "Mean Anomaly(deg)": 67.76114332949618,
        "RAAN(deg)": 234.99784961170838,
        "Satellite Name": "Constellation 1 1038",
        "Satellite Number": 1038,
        "Semi-Major Axis(m)": 7083131.272910544,
        "Time(s)": 38
    },
    {
        "Altitude(m)": 706393.797592017,
        "Argument of Periapsis(deg)": 0.002337972243570819,
        "Eccentricity": 0.0,
        "Inclination(deg)": 45.0,
        "Latitude(deg)": 41.0491770479851,
        "Longitude(deg)": -165.1239151986733,
        "Mean Anomaly(deg)": 67.82184446974607,
        "RAAN(deg)": 234.99779302254277,
        "Satellite Name": "Constellation 1 1038",
        "Satellite Number": 1038,
        "Semi-Major Axis(m)": 7083131.272910544,
        "Time(s)": 39
    },
    {
        "Altitude(m)": 706398.4707320057,
        "Argument of Periapsis(deg)": 0.0023979202498162246,
        "Eccentricity": 0.0,
        "Inclination(deg)": 45.0,
        "Latitude(deg)": 41.07066702540594,
        "Longitude(deg)": -165.05285005531252,
        "Mean Anomaly(deg)": 67.88254560999594,
        "RAAN(deg)": 234.99773643337718,
        "Satellite Name": "Constellation 1 1038",
        "Satellite Number": 1038,
        "Semi-Major Axis(m)": 7083131.272910544,
        "Time(s)": 40
    },
    {
        "Altitude(m)": 706403.1346165038,
        "Argument of Periapsis(deg)": 0.00245786825606163,
        "Eccentricity": 0.0,
        "Inclination(deg)": 45.0,
        "Latitude(deg)": 41.09210786828728,
        "Longitude(deg)": -164.98173603271348,
        "Mean Anomaly(deg)": 67.94324675024583,
        "RAAN(deg)": 234.99767984421163,
        "Satellite Name": "Constellation 1 1038",
        "Satellite Number": 1038,
        "Semi-Major Axis(m)": 7083131.272910544,
        "Time(s)": 41
    },
    {
        "Altitude(m)": 706407.7892175111,
        "Argument of Periapsis(deg)": 0.002517816262307036,
        "Eccentricity": 0.0,
        "Inclination(deg)": 45.0,
        "Latitude(deg)": 41.113499508305146,
        "Longitude(deg)": -164.91057317414842,
        "Mean Anomaly(deg)": 68.00394789049577,
        "RAAN(deg)": 234.99762325504608,
        "Satellite Name": "Constellation 1 1038",
        "Satellite Number": 1038,
        "Semi-Major Axis(m)": 7083131.272910544,
        "Time(s)": 42
    },
    {
        "Altitude(m)": 706412.4345070793,
        "Argument of Periapsis(deg)": 0.0025777642685524413,
        "Eccentricity": 0.0,
        "Inclination(deg)": 45.0,
        "Latitude(deg)": 41.134841877176804,
        "Longitude(deg)": -164.83936152340192,
        "Mean Anomaly(deg)": 68.06464903074567,
        "RAAN(deg)": 234.99756666588047,
        "Satellite Name": "Constellation 1 1038",
        "Satellite Number": 1038,
        "Semi-Major Axis(m)": 7083131.272910544,
        "Time(s)": 43
    },
    {
        "Altitude(m)": 706417.0704573275,
        "Argument of Periapsis(deg)": 0.002637712274797847,
        "Eccentricity": 0.0,
        "Inclination(deg)": 45.0,
        "Latitude(deg)": 41.156134906662004,
        "Longitude(deg)": -164.76810129286847,
        "Mean Anomaly(deg)": 68.12535017099555,
        "RAAN(deg)": 234.99751007671492,
        "Satellite Name": "Constellation 1 1038",
        "Satellite Number": 1038,
        "Semi-Major Axis(m)": 7083131.272910544,
        "Time(s)": 44
    },
    {
        "Altitude(m)": 706421.6970404334,
        "Argument of Periapsis(deg)": 0.0026976602810432526,
        "Eccentricity": 0.0,
        "Inclination(deg)": 45.0,
        "Latitude(deg)": 41.17737852856237,
        "Longitude(deg)": -164.696792191166,
        "Mean Anomaly(deg)": 68.18605131124544,
        "RAAN(deg)": 234.99745348754936,
        "Satellite Name": "Constellation 1 1038",
        "Satellite Number": 1038,
        "Semi-Major Axis(m)": 7083131.272910544,
        "Time(s)": 45
    },
    {
        "Altitude(m)": 706426.3142286299,
        "Argument of Periapsis(deg)": 0.0027576082872886585,
        "Eccentricity": 0.0,
        "Inclination(deg)": 45.0,
        "Latitude(deg)": 41.19857267472409,
        "Longitude(deg)": -164.62543443171893,
        "Mean Anomaly(deg)": 68.24675245149537,
        "RAAN(deg)": 234.99739689838378,
        "Satellite Name": "Constellation 1 1038",
        "Satellite Number": 1038,
        "Semi-Major Axis(m)": 7083131.272910544,
        "Time(s)": 46
    },
    {
        "Altitude(m)": 706430.921994218,
        "Argument of Periapsis(deg)": 0.0028175562935340644,
        "Eccentricity": 0.0,
        "Inclination(deg)": 45.0,
        "Latitude(deg)": 41.21971727703735,
        "Longitude(deg)": -164.55402806037085,
        "Mean Anomaly(deg)": 68.30745359174526,
        "RAAN(deg)": 234.99734030921823,
        "Satellite Name": "Constellation 1 1038",
        "Satellite Number": 1038,
        "Semi-Major Axis(m)": 7083131.272910544,
        "Time(s)": 47
    },
    {
        "Altitude(m)": 706435.520309564,
        "Argument of Periapsis(deg)": 0.00287750429977947,
        "Eccentricity": 0.0,
        "Inclination(deg)": 45.0,
        "Latitude(deg)": 41.2408122674375,
        "Longitude(deg)": -164.48257312348267,
        "Mean Anomaly(deg)": 68.36815473199515,
        "RAAN(deg)": 234.99728372005265,
        "Satellite Name": "Constellation 1 1038",
        "Satellite Number": 1038,
        "Semi-Major Axis(m)": 7083131.272910544,
        "Time(s)": 48
    },
    {
        "Altitude(m)": 706440.1091470836,
        "Argument of Periapsis(deg)": 0.002937452306024875,
        "Eccentricity": 0.0,
        "Inclination(deg)": 45.0,
        "Latitude(deg)": 41.26185757790583,
        "Longitude(deg)": -164.41106966793365,
        "Mean Anomaly(deg)": 68.42885587224508,
        "RAAN(deg)": 234.9972271308871,
        "Satellite Name": "Constellation 1 1038",
        "Satellite Number": 1038,
        "Semi-Major Axis(m)": 7083131.272910544,
        "Time(s)": 49
    },
    {
        "Altitude(m)": 706444.6884792588,
        "Argument of Periapsis(deg)": 0.0029974003122702807,
        "Eccentricity": 0.0,
        "Inclination(deg)": 45.0,
        "Latitude(deg)": 41.28285314047022,
        "Longitude(deg)": -164.33951774112276,
        "Mean Anomaly(deg)": 68.48955701249497,
        "RAAN(deg)": 234.99717054172152,
        "Satellite Name": "Constellation 1 1038",
        "Satellite Number": 1038,
        "Semi-Major Axis(m)": 7083131.272910544,
        "Time(s)": 50
    },
    {
        "Altitude(m)": 706449.2582786371,
        "Argument of Periapsis(deg)": 0.0030573483185156866,
        "Eccentricity": 0.0,
        "Inclination(deg)": 45.0,
        "Latitude(deg)": 41.30379888720612,
        "Longitude(deg)": -164.26791739096893,
        "Mean Anomaly(deg)": 68.55025815274486,
        "RAAN(deg)": 234.99711395255594,
        "Satellite Name": "Constellation 1 1038",
        "Satellite Number": 1038,
        "Semi-Major Axis(m)": 7083131.272910544,
        "Time(s)": 51
    },
    {
        "Altitude(m)": 706453.818517823,
        "Argument of Periapsis(deg)": 0.003117296324761092,
        "Eccentricity": 0.0,
        "Inclination(deg)": 45.0,
        "Latitude(deg)": 41.32469475023744,
        "Longitude(deg)": -164.19626883400937,
        "Mean Anomaly(deg)": 68.61095929299469,
        "RAAN(deg)": 234.99705736339035,
        "Satellite Name": "Constellation 1 1038",
        "Satellite Number": 1038,
        "Semi-Major Axis(m)": 7083131.272910544,
        "Time(s)": 52
    },
    {
        "Altitude(m)": 706458.3691694883,
        "Argument of Periapsis(deg)": 0.0031772443310064975,
        "Eccentricity": 0.0,
        "Inclination(deg)": 45.0,
        "Latitude(deg)": 41.34554066173625,
        "Longitude(deg)": -164.12457178301264,
        "Mean Anomaly(deg)": 68.67166043324468,
        "RAAN(deg)": 234.9970007742248,
        "Satellite Name": "Constellation 1 1038",
        "Satellite Number": 1038,
        "Semi-Major Axis(m)": 7083131.272910544,
        "Time(s)": 53
    },
    {
        "Altitude(m)": 706462.9102063586,
        "Argument of Periapsis(deg)": 0.0032371923372519038,
        "Eccentricity": 0.0,
        "Inclination(deg)": 45.0,
        "Latitude(deg)": 41.36633655392524,
        "Longitude(deg)": -164.05282645556198,
        "Mean Anomaly(deg)": 68.73236157349452,
        "RAAN(deg)": 234.99694418505925,
        "Satellite Name": "Constellation 1 1038",
        "Satellite Number": 1038,
        "Semi-Major Axis(m)": 7083131.272910544,
        "Time(s)": 54
    },
    {
        "Altitude(m)": 706467.4416012304,
        "Argument of Periapsis(deg)": 0.0032971403434973088,
        "Eccentricity": 0.0,
        "Inclination(deg)": 45.0,
        "Latitude(deg)": 41.38708235907754,
        "Longitude(deg)": -163.981032901667,
        "Mean Anomaly(deg)": 68.79306271374446,
        "RAAN(deg)": 234.99688759589367,
        "Satellite Name": "Constellation 1 1038",
        "Satellite Number": 1038,
        "Semi-Major Axis(m)": 7083131.272910544,
        "Time(s)": 55
    },
    {
        "Altitude(m)": 706471.9633269534,
        "Argument of Periapsis(deg)": 0.0033570883497427146,
        "Eccentricity": 0.0,
        "Inclination(deg)": 45.0,
        "Latitude(deg)": 41.40777800951746,
        "Longitude(deg)": -163.90919117186343,
        "Mean Anomaly(deg)": 68.8537638539944,
        "RAAN(deg)": 234.9968310067281,
        "Satellite Name": "Constellation 1 1038",
        "Satellite Number": 1038,
        "Semi-Major Axis(m)": 7083131.272910544,
        "Time(s)": 56
    }
]